CCSDS_OMM_VERS = 2.0
CREATION_DATE  = 
ORIGINATOR     = 

OBJECT_NAME    = COSMOS 1933
OBJECT_ID      = 1988-020A
CENTER_NAME    = EARTH
REF_FRAME      = TEME
TIME_SYSTEM    = UTC
MEAN_ELEMENT_THEORY = SGP/SGP4

EPOCH          = 2026-01-19T19:19:28.676064
MEAN_MOTION    = 15.17486516
ECCENTRICITY   = .00053228
INCLINATION    = 82.5151
RA_OF_ASC_NODE = 299.2625
ARG_OF_PERICENTER = 31.0346
MEAN_ANOMALY   = 329.1201

EPHEMERIS_TYPE = 0
CLASSIFICATION_TYPE = U
NORAD_CAT_ID   = 18958
ELEMENT_SET_NO = 999
REV_AT_EPOCH   = 4281
BSTAR          = .2068538E-3
MEAN_MOTION_DOT = .4174E-4
MEAN_MOTION_DDOT = 0

CCSDS_OMM_VERS = 2.0
CREATION_DATE  = 
ORIGINATOR     = 

OBJECT_NAME    = SL-3 R/B
OBJECT_ID      = 1988-032B
CENTER_NAME    = EARTH
REF_FRAME      = TEME
TIME_SYSTEM    = UTC
MEAN_ELEMENT_THEORY = SGP/SGP4

EPOCH          = 2026-01-19T22:30:45.010080
MEAN_MOTION    = 15.19191476
ECCENTRICITY   = .00278947
INCLINATION    = 97.5120
RA_OF_ASC_NODE = 3.4140
ARG_OF_PERICENTER = 46.8952
MEAN_ANOMALY   = 313.4610

EPHEMERIS_TYPE = 0
CLASSIFICATION_TYPE = U
NORAD_CAT_ID   = 19046
ELEMENT_SET_NO = 999
REV_AT_EPOCH   = 4470
BSTAR          = .31580011E-3
MEAN_MOTION_DOT = .6643E-4
MEAN_MOTION_DDOT = 0

CCSDS_OMM_VERS = 2.0
CREATION_DATE  = 
ORIGINATOR     = 

OBJECT_NAME    = SL-16 R/B
OBJECT_ID      = 1988-039B
CENTER_NAME    = EARTH
REF_FRAME      = TEME
TIME_SYSTEM    = UTC
MEAN_ELEMENT_THEORY = SGP/SGP4

EPOCH          = 2026-01-19T20:49:30.228672
MEAN_MOTION    = 14.19607583
ECCENTRICITY   = .00199972
INCLINATION    = 71.0140
RA_OF_ASC_NODE = 171.7805
ARG_OF_PERICENTER = 51.0518
MEAN_ANOMALY   = 309.2386

EPHEMERIS_TYPE = 0
CLASSIFICATION_TYPE = U
NORAD_CAT_ID   = 19120
ELEMENT_SET_NO = 999
REV_AT_EPOCH   = 95145
BSTAR          = .10523116E-3
MEAN_MOTION_DOT = .175E-5
MEAN_MOTION_DDOT = 0

CCSDS_OMM_VERS = 2.0
CREATION_DATE  = 
ORIGINATOR     = 

OBJECT_NAME    = COSMOS 1953
OBJECT_ID      = 1988-050A
CENTER_NAME    = EARTH
REF_FRAME      = TEME
TIME_SYSTEM    = UTC
MEAN_ELEMENT_THEORY = SGP/SGP4

EPOCH          = 2026-01-19T23:15:34.922880
MEAN_MOTION    = 15.27443062
ECCENTRICITY   = .00105688
INCLINATION    = 82.5063
RA_OF_ASC_NODE = 207.2051
ARG_OF_PERICENTER = 299.5608
MEAN_ANOMALY   = 60.4577

EPHEMERIS_TYPE = 0
CLASSIFICATION_TYPE = U
NORAD_CAT_ID   = 19210
ELEMENT_SET_NO = 999
REV_AT_EPOCH   = 3034
BSTAR          = .32750561E-3
MEAN_MOTION_DOT = .884E-4
MEAN_MOTION_DDOT = 0

CCSDS_OMM_VERS = 2.0
CREATION_DATE  = 
ORIGINATOR     = 

OBJECT_NAME    = SL-8 R/B
OBJECT_ID      = 1988-053B
CENTER_NAME    = EARTH
REF_FRAME      = TEME
TIME_SYSTEM    = UTC
MEAN_ELEMENT_THEORY = SGP/SGP4

EPOCH          = 2026-01-19T22:17:54.799008
MEAN_MOTION    = 14.38881598
ECCENTRICITY   = .00195391
INCLINATION    = 74.0456
RA_OF_ASC_NODE = 202.3347
ARG_OF_PERICENTER = 32.5622
MEAN_ANOMALY   = 80.5187

EPHEMERIS_TYPE = 0
CLASSIFICATION_TYPE = U
NORAD_CAT_ID   = 19257
ELEMENT_SET_NO = 999
REV_AT_EPOCH   = 96958
BSTAR          = .56437047E-4
MEAN_MOTION_DOT = .148E-5
MEAN_MOTION_DDOT = 0

CCSDS_OMM_VERS = 2.0
CREATION_DATE  = 
ORIGINATOR     = 

OBJECT_NAME    = COSMOS 1975
OBJECT_ID      = 1988-093A
CENTER_NAME    = EARTH
REF_FRAME      = TEME
TIME_SYSTEM    = UTC
MEAN_ELEMENT_THEORY = SGP/SGP4

EPOCH          = 2026-01-19T20:37:24.504096
MEAN_MOTION    = 15.27077327
ECCENTRICITY   = .00112824
INCLINATION    = 82.5214
RA_OF_ASC_NODE = 166.6501
ARG_OF_PERICENTER = 347.9368
MEAN_ANOMALY   = 12.1599

EPHEMERIS_TYPE = 0
CLASSIFICATION_TYPE = U
NORAD_CAT_ID   = 19573
ELEMENT_SET_NO = 999
REV_AT_EPOCH   = 1195
BSTAR          = .32936387E-3
MEAN_MOTION_DOT = .8795E-4
MEAN_MOTION_DDOT = 0

CCSDS_OMM_VERS = 2.0
CREATION_DATE  = 
ORIGINATOR     = 

OBJECT_NAME    = SL-14 R/B
OBJECT_ID      = 1988-093B
CENTER_NAME    = EARTH
REF_FRAME      = TEME
TIME_SYSTEM    = UTC
MEAN_ELEMENT_THEORY = SGP/SGP4

EPOCH          = 2026-01-19T16:58:28.089984
MEAN_MOTION    = 14.85595723
ECCENTRICITY   = .00202877
INCLINATION    = 82.5303
RA_OF_ASC_NODE = 88.0368
ARG_OF_PERICENTER = 196.2772
MEAN_ANOMALY   = 282.9009

EPHEMERIS_TYPE = 0
CLASSIFICATION_TYPE = U
NORAD_CAT_ID   = 19574
ELEMENT_SET_NO = 999
REV_AT_EPOCH   = 99376
BSTAR          = .51462143E-4
MEAN_MOTION_DOT = .471E-5
MEAN_MOTION_DDOT = 0

CCSDS_OMM_VERS = 2.0
CREATION_DATE  = 
ORIGINATOR     = 

OBJECT_NAME    = SL-16 R/B
OBJECT_ID      = 1988-102B
CENTER_NAME    = EARTH
REF_FRAME      = TEME
TIME_SYSTEM    = UTC
MEAN_ELEMENT_THEORY = SGP/SGP4

EPOCH          = 2026-01-19T22:54:55.767168
MEAN_MOTION    = 14.16146659
ECCENTRICITY   = .00119322
INCLINATION    = 70.9984
RA_OF_ASC_NODE = 254.0373
ARG_OF_PERICENTER = 84.1702
MEAN_ANOMALY   = 276.0781

EPHEMERIS_TYPE = 0
CLASSIFICATION_TYPE = U
NORAD_CAT_ID   = 19650
ELEMENT_SET_NO = 999
REV_AT_EPOCH   = 91999
BSTAR          = .11878086E-3
MEAN_MOTION_DOT = .187E-5
MEAN_MOTION_DDOT = 0

CCSDS_OMM_VERS = 2.0
CREATION_DATE  = 
ORIGINATOR     = 

OBJECT_NAME    = INTERCOSMOS 24
OBJECT_ID      = 1989-080A
CENTER_NAME    = EARTH
REF_FRAME      = TEME
TIME_SYSTEM    = UTC
MEAN_ELEMENT_THEORY = SGP/SGP4

EPOCH          = 2026-01-19T19:05:22.227360
MEAN_MOTION    = 12.59489960
ECCENTRICITY   = .11889044
INCLINATION    = 82.6079
RA_OF_ASC_NODE = 136.2156
ARG_OF_PERICENTER = 46.2896
MEAN_ANOMALY   = 323.0677

EPHEMERIS_TYPE = 0
CLASSIFICATION_TYPE = U
NORAD_CAT_ID   = 20261
ELEMENT_SET_NO = 999
REV_AT_EPOCH   = 66064
BSTAR          = .96338191E-4
MEAN_MOTION_DOT = .354E-5
MEAN_MOTION_DDOT = 0

CCSDS_OMM_VERS = 2.0
CREATION_DATE  = 
ORIGINATOR     = 

OBJECT_NAME    = SL-14 R/B
OBJECT_ID      = 1989-080C
CENTER_NAME    = EARTH
REF_FRAME      = TEME
TIME_SYSTEM    = UTC
MEAN_ELEMENT_THEORY = SGP/SGP4

EPOCH          = 2026-01-19T21:45:46.128960
MEAN_MOTION    = 12.50441046
ECCENTRICITY   = .12296454
INCLINATION    = 82.5918
RA_OF_ASC_NODE = 204.5101
ARG_OF_PERICENTER = 296.3378
MEAN_ANOMALY   = 51.6573

EPHEMERIS_TYPE = 0
CLASSIFICATION_TYPE = U
NORAD_CAT_ID   = 20262
ELEMENT_SET_NO = 999
REV_AT_EPOCH   = 65405
BSTAR          = .88304195E-4
MEAN_MOTION_DOT = .292E-5
MEAN_MOTION_DDOT = 0

CCSDS_OMM_VERS = 2.0
CREATION_DATE  = 
ORIGINATOR     = 

OBJECT_NAME    = DELTA 1 R/B
OBJECT_ID      = 1989-089B
CENTER_NAME    = EARTH
REF_FRAME      = TEME
TIME_SYSTEM    = UTC
MEAN_ELEMENT_THEORY = SGP/SGP4

EPOCH          = 2026-01-19T17:11:03.101568
MEAN_MOTION    = 14.50609741
ECCENTRICITY   = .00675551
INCLINATION    = 97.0735
RA_OF_ASC_NODE = 234.9323
ARG_OF_PERICENTER = 277.7095
MEAN_ANOMALY   = 81.6435

EPHEMERIS_TYPE = 0
CLASSIFICATION_TYPE = U
NORAD_CAT_ID   = 20323
ELEMENT_SET_NO = 999
REV_AT_EPOCH   = 88863
BSTAR          = .1060504E-3
MEAN_MOTION_DOT = .392E-5
MEAN_MOTION_DDOT = 0

CCSDS_OMM_VERS = 2.0
CREATION_DATE  = 
ORIGINATOR     = 

OBJECT_NAME    = ARIANE 40 R/B
OBJECT_ID      = 1990-005H
CENTER_NAME    = EARTH
REF_FRAME      = TEME
TIME_SYSTEM    = UTC
MEAN_ELEMENT_THEORY = SGP/SGP4

EPOCH          = 2026-01-19T16:23:12.023520
MEAN_MOTION    = 14.39828667
ECCENTRICITY   = .00099124
INCLINATION    = 98.3183
RA_OF_ASC_NODE = 81.7786
ARG_OF_PERICENTER = 358.9697
MEAN_ANOMALY   = 1.1470

EPHEMERIS_TYPE = 0
CLASSIFICATION_TYPE = U
NORAD_CAT_ID   = 20443
ELEMENT_SET_NO = 999
REV_AT_EPOCH   = 88575
BSTAR          = .93422182E-4
MEAN_MOTION_DOT = .251E-5
MEAN_MOTION_DDOT = 0

