COSMOS 1933             
1 18958U 88020A   26019.80519301  .00004174  00000+0  20685-3 0  9993
2 18958  82.5151 299.2625 0005322  31.0346 329.1201 15.17486516 42816
SL-3 R/B                
1 19046U 88032B   26019.93802095  .00006643  00000+0  31580-3 0  9993
2 19046  97.5120   3.4140 0027894  46.8952 313.4610 15.19191476 44709
SL-16 R/B               
1 19120U 88039B   26019.86771098  .00000175  00000+0  10523-3 0  9991
2 19120  71.0140 171.7805 0019997  51.0518 309.2386 14.19607583951451
COSMOS 1953             
1 19210U 88050A   26019.96915420  .00008840  00000+0  32751-3 0  9998
2 19210  82.5063 207.2051 0010568 299.5608  60.4577 15.27443062 30348
SL-8 R/B                
1 19257U 88053B   26019.92910647  .00000148  00000+0  56437-4 0  9995
2 19257  74.0456 202.3347 0019539  32.5622  80.5187 14.38881598969581
COSMOS 1975             
1 19573U 88093A   26019.85931139  .00008795  00000+0  32936-3 0  9994
2 19573  82.5214 166.6501 0011282 347.9368  12.1599 15.27077327 11952
SL-14 R/B               
1 19574U 88093B   26019.70726956  .00000471  00000+0  51462-4 0  9997
2 19574  82.5303  88.0368 0020287 196.2772 282.9009 14.85595723993768
SL-16 R/B               
1 19650U 88102B   26019.95481212  .00000187  00000+0  11878-3 0  9993
2 19650  70.9984 254.0373 0011932  84.1702 276.0781 14.16146659919993
INTERCOSMOS 24          
1 20261U 89080A   26019.79539615  .00000354  00000+0  96338-4 0  9993
2 20261  82.6079 136.2156 1188904  46.2896 323.0677 12.59489960660648
SL-14 R/B               
1 20262U 89080C   26019.90678390  .00000292  00000+0  88304-4 0  9996
2 20262  82.5918 204.5101 1229645 296.3378  51.6573 12.50441046654051
DELTA 1 R/B             
1 20323U 89089B   26019.71600812  .00000392  00000+0  10605-3 0  9995
2 20323  97.0735 234.9323 0067555 277.7095  81.6435 14.50609741888631
ARIANE 40 R/B           
1 20443U 90005H   26019.68277805  .00000251  00000+0  93422-4 0  9999
2 20443  98.3183  81.7786 0009912 358.9697   1.1470 14.39828667885752
